OBJECT C                
1 57582U 23117C   25044.16538644  .00011020  00000+0  47170-3 0  9998
2 57582  97.4582 119.7351 0009694 166.3843 193.7657 15.22934264 83771
